CREW DRAGON 12          
1 67796U 26031A   26067.41623043  .00011291  00000+0  21617-3 0  9994
2 67796  51.6319  78.6521 0008065 170.0958 190.0190 15.48526204556025
